{"type": "FeatureCollection", "features": [ {"type": "Feature", "properties": {"norad_id": 66456, "name": "STARLINK-35643", "group": "last-30-days", "lat": -42.954959234224596, "lon": 41.628025163874696, "alt_km": 381.675726762498, "timestamp": "2025-12-02T19:35:49.342803+00:00", "meta": {"OBJECT_NAME": "STARLINK-35643", "OBJECT_ID": "2025-262A", "EPOCH": "2025-12-02T12:00:05.998752", "MEAN_MOTION": 15.64301457, "ECCENTRICITY": 0.0001599, "INCLINATION": 42.9991, "RA_OF_ASC_NODE": 131.1935, "ARG_OF_PERICENTER": 262.7639, "MEAN_ANOMALY": 25.4136, "EPHEMERIS_TYPE": 0, "CLASSIFICATION_TYPE": "U", "NORAD_CAT_ID": 66456, "ELEMENT_SET_NO": 999, "REV_AT_EPOCH": 399, "BSTAR": -0.024633, "MEAN_MOTION_DOT": -0.02111605, "MEAN_MOTION_DDOT": 0}, "tle": {"line1": "1 66456U 25262A   25336.50006943 -.02111605  00000+0 -24633-1 0  9996", "line2": "2 66456  42.9991 131.1935 0001599 262.7639  25.4136 15.64301457  3993"}}, "geometry": {"type": "Point", "coordinates": [41.628025163874696, -42.954959234224596]}}, {"type": "Feature", "properties": {"norad_id": 66457, "name": "STARLINK-35466", "group": "last-30-days", "lat": -42.7306880736452, "lon": 46.830677488081676, "alt_km": 381.70302738984265, "timestamp": "2025-12-02T19:35:49.342813+00:00", "meta": {"OBJECT_NAME": "STARLINK-35466", "OBJECT_ID": "2025-262B", "EPOCH": "2025-12-02T12:00:05.998752", "MEAN_MOTION": 15.64298719, "ECCENTRICITY": 0.0001555, "INCLINATION": 42.9991, "RA_OF_ASC_NODE": 131.1836, "ARG_OF_PERICENTER": 264.1044, "MEAN_ANOMALY": 27.9074, "EPHEMERIS_TYPE": 0, "CLASSIFICATION_TYPE": "U", "NORAD_CAT_ID": 66457, "ELEMENT_SET_NO": 999, "REV_AT_EPOCH": 399, "BSTAR": -0.024573, "MEAN_MOTION_DOT": -0.02106936, "MEAN_MOTION_DDOT": 0}, "tle": {"line1": "1 66457U 25262B   25336.50006943 -.02106936  00000+0 -24573-1 0  9991", "line2": "2 66457  42.9991 131.1836 0001555 264.1044  27.9074 15.64298719  3996"}}, "geometry": {"type": "Point", "coordinates": [46.830677488081676, -42.7306880736452]}}, {"type": "Feature", "properties": {"norad_id": 66458, "name": "STARLINK-35684", "group": "last-30-days", "lat": -42.87247810964178, "lon": 44.23390548289349, "alt_km": 381.66354398170824, "timestamp": "2025-12-02T19:35:49.342823+00:00", "meta": {"OBJECT_NAME": "STARLINK-35684", "OBJECT_ID": "2025-262C", "EPOCH": "2025-12-02T12:00:05.998752", "MEAN_MOTION": 15.64297802, "ECCENTRICITY": 0.0001623, "INCLINATION": 42.9992, "RA_OF_ASC_NODE": 131.1881, "ARG_OF_PERICENTER": 262.2251, "MEAN_ANOMALY": 27.8704, "EPHEMERIS_TYPE": 0, "CLASSIFICATION_TYPE": "U", "NORAD_CAT_ID": 66458, "ELEMENT_SET_NO": 999, "REV_AT_EPOCH": 399, "BSTAR": -0.024565, "MEAN_MOTION_DOT": -0.02106313, "MEAN_MOTION_DDOT": 0}, "tle": {"line1": "1 66458U 25262C   25336.50006943 -.02106313  00000+0 -24565-1 0  9992", "line2": "2 66458  42.9992 131.1881 0001623 262.2251  27.8704 15.64297802  3994"}}, "geometry": {"type": "Point", "coordinates": [44.23390548289349, -42.87247810964178]}}, {"type": "Feature", "properties": {"norad_id": 66459, "name": "STARLINK-35449", "group": "last-30-days", "lat": -42.53025251308887, "lon": 49.415880949833245, "alt_km": 381.6516272657973, "timestamp": "2025-12-02T19:35:49.342837+00:00", "meta": {"OBJECT_NAME": "STARLINK-35449", "OBJECT_ID": "2025-262D", "EPOCH": "2025-12-02T12:00:05.998752", "MEAN_MOTION": 15.64299177, "ECCENTRICITY": 0.0001648, "INCLINATION": 42.9992, "RA_OF_ASC_NODE": 131.1786, "ARG_OF_PERICENTER": 262.2967, "MEAN_ANOMALY": 31.6328, "EPHEMERIS_TYPE": 0, "CLASSIFICATION_TYPE": "U", "NORAD_CAT_ID": 66459, "ELEMENT_SET_NO": 999, "REV_AT_EPOCH": 399, "BSTAR": -0.024592, "MEAN_MOTION_DOT": -0.02108472, "MEAN_MOTION_DDOT": 0}, "tle": {"line1": "1 66459U 25262D   25336.50006943 -.02108472  00000+0 -24592-1 0  9991", "line2": "2 66459  42.9992 131.1786 0001648 262.2967  31.6328 15.64299177  3992"}}, "geometry": {"type": "Point", "coordinates": [49.415880949833245, -42.53025251308887]}}, {"type": "Feature", "properties": {"norad_id": 66460, "name": "STARLINK-35424", "group": "last-30-days", "lat": -42.27206503745203, "lon": 51.9793357016504, "alt_km": 381.6826989809924, "timestamp": "2025-12-02T19:35:49.342847+00:00", "meta": {"OBJECT_NAME": "STARLINK-35424", "OBJECT_ID": "2025-262E", "EPOCH": "2025-12-02T12:00:05.998752", "MEAN_MOTION": 15.64297719, "ECCENTRICITY": 0.0001583, "INCLINATION": 42.9991, "RA_OF_ASC_NODE": 131.1741, "ARG_OF_PERICENTER": 265.4311, "MEAN_ANOMALY": 30.4177, "EPHEMERIS_TYPE": 0, "CLASSIFICATION_TYPE": "U", "NORAD_CAT_ID": 66460, "ELEMENT_SET_NO": 999, "REV_AT_EPOCH": 399, "BSTAR": -0.024597, "MEAN_MOTION_DOT": -0.02108642, "MEAN_MOTION_DDOT": 0}, "tle": {"line1": "1 66460U 25262E   25336.50006943 -.02108642  00000+0 -24597-1 0  9997", "line2": "2 66460  42.9991 131.1741 0001583 265.4311  30.4177 15.64297719  3999"}}, "geometry": {"type": "Point", "coordinates": [51.9793357016504, -42.27206503745203]}}, {"type": "Feature", "properties": {"norad_id": 66461, "name": "STARLINK-35132", "group": "last-30-days", "lat": -41.957183852084455, "lon": 54.51869494407256, "alt_km": 381.65858913710235, "timestamp": "2025-12-02T19:35:49.342858+00:00", "meta": {"OBJECT_NAME": "STARLINK-35132", "OBJECT_ID": "2025-262F", "EPOCH": "2025-12-02T12:00:05.998752", "MEAN_MOTION": 15.64292495, "ECCENTRICITY": 0.0001612, "INCLINATION": 42.999, "RA_OF_ASC_NODE": 131.1694, "ARG_OF_PERICENTER": 265.4075, "MEAN_ANOMALY": 32.3592, "EPHEMERIS_TYPE": 0, "CLASSIFICATION_TYPE": "U", "NORAD_CAT_ID": 66461, "ELEMENT_SET_NO": 999, "REV_AT_EPOCH": 399, "BSTAR": -0.024499, "MEAN_MOTION_DOT": -0.02100969, "MEAN_MOTION_DDOT": 0}, "tle": {"line1": "1 66461U 25262F   25336.50006943 -.02100969  00000+0 -24499-1 0  9993", "line2": "2 66461  42.9990 131.1694 0001612 265.4075  32.3592 15.64292495  3994"}}, "geometry": {"type": "Point", "coordinates": [54.51869494407256, -41.957183852084455]}}, {"type": "Feature", "properties": {"norad_id": 66462, "name": "STARLINK-35499", "group": "last-30-days", "lat": -41.586636389388325, "lon": 57.03206884407816, "alt_km": 381.7120078868893, "timestamp": "2025-12-02T19:35:49.342868+00:00", "meta": {"OBJECT_NAME": "STARLINK-35499", "OBJECT_ID": "2025-262G", "EPOCH": "2025-12-02T12:00:05.998752", "MEAN_MOTION": 15.64293821, "ECCENTRICITY": 0.0001527, "INCLINATION": 42.9991, "RA_OF_ASC_NODE": 131.1641, "ARG_OF_PERICENTER": 264.8923, "MEAN_ANOMALY": 34.79, "EPHEMERIS_TYPE": 0, "CLASSIFICATION_TYPE": "U", "NORAD_CAT_ID": 66462, "ELEMENT_SET_NO": 999, "REV_AT_EPOCH": 399, "BSTAR": -0.024503, "MEAN_MOTION_DOT": -0.02101284, "MEAN_MOTION_DDOT": 0}, "tle": {"line1": "1 66462U 25262G   25336.50006943 -.02101284  00000+0 -24503-1 0  9991", "line2": "2 66462  42.9991 131.1641 0001527 264.8923  34.7900 15.64293821  3991"}}, "geometry": {"type": "Point", "coordinates": [57.03206884407816, -41.586636389388325]}}, {"type": "Feature", "properties": {"norad_id": 66463, "name": "STARLINK-35463", "group": "last-30-days", "lat": -40.68415778982651, "lon": 61.96227695977981, "alt_km": 381.6419177243206, "timestamp": "2025-12-02T19:35:49.342878+00:00", "meta": {"OBJECT_NAME": "STARLINK-35463", "OBJECT_ID": "2025-262H", "EPOCH": "2025-12-02T12:00:05.998752", "MEAN_MOTION": 15.64286, "ECCENTRICITY": 0.0001641, "INCLINATION": 42.999, "RA_OF_ASC_NODE": 131.1543, "ARG_OF_PERICENTER": 262.5801, "MEAN_ANOMALY": 40.9363, "EPHEMERIS_TYPE": 0, "CLASSIFICATION_TYPE": "U", "NORAD_CAT_ID": 66463, "ELEMENT_SET_NO": 999, "REV_AT_EPOCH": 399, "BSTAR": -0.024336, "MEAN_MOTION_DOT": -0.02088363, "MEAN_MOTION_DDOT": 0}, "tle": {"line1": "1 66463U 25262H   25336.50006943 -.02088363  00000+0 -24336-1 0  9998", "line2": "2 66463  42.9990 131.1543 0001641 262.5801  40.9363 15.64286000  3992"}}, "geometry": {"type": "Point", "coordinates": [61.96227695977981, -40.68415778982651]}}, {"type": "Feature", "properties": {"norad_id": 66464, "name": "STARLINK-35435", "group": "last-30-days", "lat": -41.16162441108505, "lon": 59.51506581416993, "alt_km": 381.63648342187025, "timestamp": "2025-12-02T19:35:49.342888+00:00", "meta": {"OBJECT_NAME": "STARLINK-35435", "OBJECT_ID": "2025-262J", "EPOCH": "2025-12-02T12:00:05.998752", "MEAN_MOTION": 15.6429775, "ECCENTRICITY": 0.0001608, "INCLINATION": 42.999, "RA_OF_ASC_NODE": 131.1595, "ARG_OF_PERICENTER": 267.6216, "MEAN_ANOMALY": 33.9767, "EPHEMERIS_TYPE": 0, "CLASSIFICATION_TYPE": "U", "NORAD_CAT_ID": 66464, "ELEMENT_SET_NO": 999, "REV_AT_EPOCH": 399, "BSTAR": -0.024585, "MEAN_MOTION_DOT": -0.02107789, "MEAN_MOTION_DDOT": 0}, "tle": {"line1": "1 66464U 25262J   25336.50006943 -.02107789  00000+0 -24585-1 0  9999", "line2": "2 66464  42.9990 131.1595 0001608 267.6216  33.9767 15.64297750  3993"}}, "geometry": {"type": "Point", "coordinates": [59.51506581416993, -41.16162441108505]}}, {"type": "Feature", "properties": {"norad_id": 66465, "name": "STARLINK-35448", "group": "last-30-days", "lat": -39.57527281234988, "lon": 66.75369814709502, "alt_km": 381.6048362891888, "timestamp": "2025-12-02T19:35:49.342898+00:00", "meta": {"OBJECT_NAME": "STARLINK-35448", "OBJECT_ID": "2025-262K", "EPOCH": "2025-12-02T12:00:05.998752", "MEAN_MOTION": 15.64300234, "ECCENTRICITY": 0.0001691, "INCLINATION": 42.9989, "RA_OF_ASC_NODE": 131.1448, "ARG_OF_PERICENTER": 262.6445, "MEAN_ANOMALY": 44.7036, "EPHEMERIS_TYPE": 0, "CLASSIFICATION_TYPE": "U", "NORAD_CAT_ID": 66465, "ELEMENT_SET_NO": 999, "REV_AT_EPOCH": 399, "BSTAR": -0.024609, "MEAN_MOTION_DOT": -0.02109825, "MEAN_MOTION_DDOT": 0}, "tle": {"line1": "1 66465U 25262K   25336.50006943 -.02109825  00000+0 -24609-1 0  9990", "line2": "2 66465  42.9989 131.1448 0001691 262.6445  44.7036 15.64300234  3991"}}, "geometry": {"type": "Point", "coordinates": [66.75369814709502, -39.57527281234988]}}]}